STARLINK-30703          
1 57954U 23148V   25131.94058826  .00000837  00000+0  40399-4 0  9998
2 57954  53.1611 335.7670 0001127 100.6713 259.4414 15.30196252 92362
STARLINK-30702          
1 57955U 23148W   25131.87949823  .00000206  00000+0  19085-4 0  9995
2 57955  53.1603 336.0967 0001183  88.0295 272.0842 15.30193159 92261
STARLINK-30396          
1 57964U 23151A   25131.81919838 -.00000176  00000+0  20499-5 0  9995
2 57964  43.0020 179.1448 0001179 273.0117  87.0591 15.02534488 90329
STARLINK-30524          
1 57965U 23151B   25132.18920653  .00000505  00000+0  52428-4 0  9995
2 57965  43.0034 176.7734 0001491 270.6429  89.4243 15.02535960 90328
STARLINK-30521          
1 57966U 23151C   25132.52935925 -.00000074  00000+0  96012-5 0  9992
2 57966  43.0032 175.0152 0001953 273.3701  86.6918 15.02533912 90377
STARLINK-30528          
1 57967U 23151D   25132.52605172  .00001590  00000+0  13273-3 0  9990
2 57967  43.0031 174.9823 0001544 276.7920  83.2747 15.02538849 90429
STARLINK-30495          
1 57968U 23151E   25131.82476426  .00002522  00000+0  20177-3 0  9998
2 57968  43.0041 179.1824 0000735 266.8248  93.2510 15.02525138 90328
STARLINK-30484          
1 57969U 23151F   25131.85792758 -.00000220  00000+0 -12095-5 0  9998
2 57969  43.0029 178.5750 0001477 267.5581  92.5092 15.02534126 90333
STARLINK-30494          
1 57970U 23151G   25131.77565005  .00000230  00000+0  17870-4 0  9998
2 57970  43.0045 149.8869 0001294 259.9765 100.0940 15.27582455 90603
STARLINK-30498          
1 57971U 23151H   25131.49790592  .00000237  00000+0  32607-4 0  9991
2 57971  43.0038 181.0134 0001443 276.3918  83.6760 15.02533517 90275
STARLINK-30505          
1 57972U 23151J   25131.51455680 -.00000032  00000+0  12699-4 0  9994
2 57972  43.0020 181.1376 0001581 278.1023  81.9640 15.02531933 90274
STARLINK-30502          
1 57973U 23151K   25131.83473402  .00000215  00000+0  30998-4 0  9996
2 57973  43.0031 179.2392 0001551 275.2425  84.8240 15.02532431 90322
STARLINK-30489          
1 57974U 23151L   25131.86014463  .00000210  00000+0  30653-4 0  9991
2 57974  43.0032 178.5832 0001460 270.5163  89.5512 15.02535002 90333
STARLINK-30503          
1 57975U 23151M   25132.44079935 -.00003240  00000+0 -22487-3 0  9995
2 57975  43.0044 176.0232 0001322 263.9121  96.1571 15.02537702 90407
STARLINK-30512          
1 57976U 23151N   25132.54264695 -.00030302  00000+0 -22291-2 0  9997
2 57976  43.0031 175.0440 0003562 269.4214  90.6220 15.02676443 90323
STARLINK-30509          
1 57977U 23151P   25132.19790364  .00001087  00000+0  95552-4 0  9994
2 57977  43.0022 190.3938 0002173 286.1738  73.8865 15.02542929 90150
STARLINK-30511          
1 57978U 23151Q   25131.85886117 -.00000509  00000+0 -22644-4 0  9991
2 57978  43.0028 192.1515 0001203 267.8838  92.1867 15.02530424 90173
STARLINK-30508          
1 57979U 23151R   25132.52030011  .00001853  00000+0  15218-3 0  9990
2 57979  43.0006 188.5115 0001290 275.6528  84.4167 15.02541264 90210
STARLINK-30504          
1 57980U 23151S   25132.26868972 -.00000986  00000+0 -27858-4 0  9990
2 57980  43.0018 133.9902 0001259 254.6965 105.3746 15.25900286 90887
STARLINK-30510          
1 57981U 23151T   25132.45049726  .00000606  00000+0  59933-4 0  9996
2 57981  43.0033 188.8490 0001711 274.0527  86.0120 15.02535887 90202
STARLINK-30507          
1 57982U 23151U   25131.84886857  .00000028  00000+0  17135-4 0  9999
2 57982  43.0032 192.0777 0001519 270.4820  89.5848 15.02533615 90177
STARLINK-30515          
1 57983U 23151V   25131.51315201 -.00000154  00000+0  36422-5 0  9996
2 57983  43.0024 193.8599 0001366 268.9159  91.1526 15.02532618 90126
STARLINK-30516          
1 57984U 23151W   25132.50698629  .00000394  00000+0  44253-4 0  9990
2 57984  43.0019 188.4155 0001361 267.4548  92.6138 15.02533360 90265
STARLINK-30519          
1 57985U 23151X   25132.43716872  .00004202  00000+0  32579-3 0  9993
2 57985  43.0017 188.7507 0001579 270.0912  89.9750 15.02551175 90201
STARLINK-30537          
1 57991U 23153A   25131.75746771 -.00000394  00000+0 -14101-4 0  9999
2 57991  43.0037 269.7366 0001155 264.0557  96.0154 15.02537063 89352
STARLINK-30534          
1 57992U 23153B   25132.36575302  .00000391  00000+0  43989-4 0  9999
2 57992  43.0018 266.5545 0001271 266.5494  93.5203 15.02533740 89458
STARLINK-30536          
1 57993U 23153C   25132.41558108  .00000283  00000+0  36017-4 0  9995
2 57993  43.0048 266.0752 0001187 261.4321  98.6386 15.02535847 89566
STARLINK-30538          
1 57994U 23153D   25132.40891876  .00000007  00000+0  15562-4 0  9993
2 57994  43.0056 266.0160 0001210 271.9323  88.1381 15.02547018 89454
STARLINK-30517          
1 57995U 23153E   25132.40559001  .00000288  00000+0  36366-4 0  9991
2 57995  43.0037 265.9949 0001330 262.7660  97.3031 15.02537395 89565
STARLINK-30523          
1 57997U 23153G   25132.07985967  .00004028  00000+0  31302-3 0  9990
2 57997  43.0028 267.8544 0001252 261.0502  99.0199 15.02544457 89515
STARLINK-30531          
1 57998U 23153H   25132.37565387  .00020191  00000+0  15084-2 0  9991
2 57998  43.0040 265.7774 0001995 249.3613 110.7016 15.02460722 89553
STARLINK-30552          
1 57999U 23153J   25132.06654811  .00001253  00000+0  10781-3 0  9997
2 57999  43.0040 267.7526 0001249 278.6329  81.4371 15.02529258 89516
STARLINK-30545          
1 58000U 23153K   25131.86378216 -.00000128  00000+0  56227-5 0  9998
2 58000  43.0021 268.8098 0001120 273.4016  86.6698 15.02531882 89479
STARLINK-30535          
1 58001U 23153L   25131.86044892  .00000825  00000+0  76142-4 0  9999
2 58001  43.0031 268.7813 0001395 255.4702 104.5986 15.02539065 89472
STARLINK-30540          
1 58002U 23153M   25131.83059824  .00000086  00000+0  21450-4 0  9999
2 58002  43.0027 269.4025 0001387 264.4413  95.6271 15.02532162 89367
STARLINK-30546          
1 58003U 23153N   25132.38893978  .00000763  00000+0  71561-4 0  9997
2 58003  43.0033 265.8682 0001151 260.8517  99.2195 15.02533404 89565
STARLINK-30539          
1 58004U 23153P   25132.38561465 -.00001786  00000+0 -11712-3 0  9990
2 58004  43.0026 265.8443 0001684 245.3000 114.7667 15.02538802 89552
STARLINK-30530          
1 58005U 23153Q   25132.37895573  .00004233  00000+0  32824-3 0  9995
2 58005  43.0028 265.7913 0001579 252.8962 107.1708 15.02532182 89567
STARLINK-30526          
1 58006U 23153R   25132.59232966  .00001570  00000+0  13127-3 0  9997
2 58006  43.0030 239.6252 0001224 269.3216  90.7486 15.02535356 89879
STARLINK-30527          
1 58007U 23153S   25131.89194015  .00001270  00000+0  55661-4 0  9999
2 58007  43.0014 102.7739 0001022 281.8138  78.2599 15.27574150 91309
STARLINK-30522          
1 58008U 23153T   25131.87044252  .00001175  00000+0  10207-3 0  9995
2 58008  43.0024 268.8535 0001300 268.4006  91.6688 15.02526383 89474
STARLINK-30486          
1 58009U 23153U   25131.65102765  .00000537  00000+0  54802-4 0  9997
2 58009  43.0040 269.7897 0001722 266.9863  93.0782 15.02533038 89348
STARLINK-30520          
1 58010U 23153V   25132.10649671  .00000485  00000+0  51000-4 0  9991
2 58010  43.0033 268.0344 0002173 275.7641  84.2954 15.02536497 89406
STARLINK-30497          
1 58011U 23153W   25131.83726206 -.00001033  00000+0 -61456-4 0  9999
2 58011  43.0047 269.4531 0001370 260.9347  99.1341 15.02521797 89460
STARLINK-30525          
1 58012U 23153X   25131.76079219  .00000007  00000+0  15556-4 0  9995
2 58012  43.0028 269.7386 0001215 271.1540  88.9163 15.02532006 89450
STARLINK-30514          
1 58028U 23156A   25131.77059772  .00000912  00000+0  42924-4 0  9992
2 58028  53.1613  40.5662 0001103  93.8574 266.2553 15.30196518 90094
STARLINK-30518          
1 58029U 23156B   25131.97604434  .00000519  00000+0  29663-4 0  9994
2 58029  53.1607  39.7195 0001186  96.4305 263.6830 15.30193546 90122
STARLINK-30549          
1 58030U 23156C   25132.00239400  .00000946  00000+0  44063-4 0  9993
2 58030  53.1617  39.6940 0001337  92.3763 267.7391 15.30193571 89799
STARLINK-30556          
1 58031U 23156D   25131.75896488  .00001191  00000+0  52336-4 0  9995
2 58031  53.1621  50.8326 0001179 117.6557 242.4563 15.30186221 89935
STARLINK-30561          
1 58032U 23156E   25132.00872360  .00000150  00000+0  17186-4 0  9996
2 58032  53.1619  39.7307 0001263 105.8297 254.2843 15.30200796 90121
STARLINK-30562          
1 58033U 23156F   25132.23113799  .00000534  00000+0  56660-4 0  9992
2 58033  53.1596 117.5341 0001297  82.1500 277.9637 15.04925603 89033
STARLINK-30565          
1 58034U 23156G   25132.01083251  .00000039  00000+0  13423-4 0  9998
2 58034  53.1595  39.7560 0000968  86.7985 273.3126 15.30203913 90129
STARLINK-30438          
1 58035U 23156H   25132.02657753  .00000342  00000+0  23658-4 0  9992
2 58035  53.1619  39.3146 0001148  82.1309 277.9822 15.30203555 89790
STARLINK-30437          
1 58036U 23156J   25131.96970426  .00000717  00000+0  36320-4 0  9996
2 58036  53.1611  39.6654 0000821  94.6497 265.4598 15.30197973 90007
STARLINK-30533          
1 58037U 23156K   25131.95798014  .00000569  00000+0  59147-4 0  9994
2 58037  53.1594 118.6636 0001399  87.4401 272.6749 15.04921244 88992
STARLINK-30560          
1 58038U 23156L   25132.00885553 -.00001453  00000+0 -26329-4 0  9998
2 58038  53.1604  38.4875 0001089  68.1330 291.9790 15.39639764 89882
STARLINK-30559          
1 58039U 23156M   25131.70627909 -.00000164  00000+0  78866-5 0  9995
2 58039  53.1594 119.9470 0001331  82.9508 277.1633 15.04924822 88951
STARLINK-30555          
1 58040U 23156N   25132.23437378  .00000905  00000+0  82552-4 0  9993
2 58040  53.1593 117.5600 0001196 103.5526 256.5597 15.04923370 89037
STARLINK-30542          
1 58041U 23156P   25132.15299622  .00008476  00000+0  29778-3 0  9994
2 58041  53.1612  38.8459 0001142  84.8198 275.2933 15.30219457 90143
